BEIDOU 3 (C01)          
1 36287U 10001A   20209.42279163 -.00000291  00000-0  00000+0 0  9997
2 36287   1.4724  28.7888 0005576 113.2829  96.0628  1.00268287 38608
BEIDOU 5 (C06)          
1 36828U 10036A   20209.35382142 -.00000096  00000-0  10000-3 0  9998
2 36828  54.1649 182.6028 0097830 234.7421 130.8490  1.00247162 36653
BEIDOU 6 (C04)          
1 37210U 10057A   20208.86507860 -.00000121  00000-0  00000+0 0  9992
2 37210   0.8790  50.6660 0004802 113.1353 252.6541  1.00271809 35712
BEIDOU 7 (C07)          
1 37256U 10068A   20208.73942187 -.00000226  00000-0  00000+0 0  9991
2 37256  51.4138 297.8713 0081408 212.6292 176.4901  1.00301053 35222
BEIDOU 8 (C08)          
1 37384U 11013A   20208.84697640 -.00000201  00000-0  10000-3 0  9995
2 37384  59.3207  61.1993 0049352 201.3352 103.8757  1.00295450 34106
BEIDOU 9 (C09)          
1 37763U 11038A   20208.91091817 -.00000038  00000-0  10000-3 0  9993
2 37763  54.4513 185.0157 0074280 225.7375 317.0018  1.00286354 33071
BEIDOU 10 (C10)         
1 37948U 11073A   20208.80829419 -.00000167  00000-0  10000-3 0  9995
2 37948  51.5098 297.4644 0069982 213.2224 180.3032  1.00287052 31834
BEIDOU 11 (C05)         
1 38091U 12008A   20208.90402653  .00000046  00000-0  00000-0 0  9993
2 38091   1.5610  67.7283 0003245 298.0000 323.4720  1.00275553 30903
BEIDOU 12 (C11)         
1 38250U 12018A   20207.57060885 -.00000067  00000-0  10000-3 0  9998
2 38250  56.7378  16.4104 0020584 239.3841 134.0899  1.86234456 56207
BEIDOU 13 (C12)         
1 38251U 12018B   20208.36171093 -.00000069  00000-0  00000-0 0  9999
2 38251  56.6628  15.7536 0011489 240.2059 349.0441  1.86232735 56212
BEIDOU 15 (C14)         
1 38775U 12050B   20208.17021678  .00000011  00000-0  00000-0 0  9994
2 38775  55.0759 134.9903 0016265 317.5533 339.6726  1.86232377 53585
BEIDOU 16 (C02)         
1 38953U 12059A   20209.59900962 -.00000185  00000-0  00000+0 0  9992
2 38953   1.1995  83.9896 0007108 275.6488 245.6077  1.00275601 28489
BEIDOU 17 (C31)         
1 40549U 15019A   20209.22398590 -.00000204  00000-0  00000+0 0  9995
2 40549  52.9979 320.7451 0040024 188.5963 334.0313  1.00279341 19517
BEIDOU 18 (C57)         
1 40748U 15037A   20208.85145594 -.00000073  00000-0  00000+0 0  9992
2 40748  55.9347  15.0196 0003625  37.0142  70.4676  1.86232090 34056
BEIDOU 19 (C58)         
1 40749U 15037B   20209.33162508 -.00000075  00000-0  00000+0 0  9993
2 40749  55.9385  14.9906 0002863 331.9015 234.5560  1.86232307 34050
BEIDOU 20 (C18)         
1 40938U 15053A   20208.91996948 -.00000139  00000-0  00000+0 0  9998
2 40938  52.5578 283.7797 0051596 188.9950 259.1374  1.00263887 17797
BEIDOU IGSO-6 (C13)     
1 41434U 16021A   20208.56012865 -.00000152  00000-0  00000+0 0  9999
2 41434  57.0926  60.0939 0039117 204.0152 335.4974  1.00291552 15915
BEIDOU-2 G7 (C03)       
1 41586U 16037A   20208.84252521 -.00000364  00000-0  00000+0 0  9995
2 41586   1.5722  65.4513 0008067   7.7362 285.6450  1.00271516 15215
BEIDOU-3 M1 (C19)       
1 43001U 17069A   20208.88573170  .00000002  00000-0  00000+0 0  9993
2 43001  55.2299 134.8743 0011182 292.0916 281.6693  1.86231982 18536
BEIDOU-3 M2 (C20)       
1 43002U 17069B   20208.91237457  .00000001  00000-0  00000+0 0  9992
2 43002  55.2294 134.9085 0010238 311.8295 323.6494  1.86231539 18526
BEIDOU-3 M3 (C27)       
1 43107U 18003A   20208.56074234 -.00000073  00000-0  00000+0 0  9990
2 43107  55.3669  16.2568 0004853  49.7742 155.8206  1.86232692 17286
BEIDOU-3 M4 (C28)       
1 43108U 18003B   20208.79067189 -.00000074  00000-0  00000+0 0  9998
2 43108  55.3623  16.2408 0002485 226.4041 178.4911  1.86232765 17291
BEIDOU-3 M5 (C21)       
1 43207U 18018A   20208.63432451  .00000005  00000-0  00000+0 0  9998
2 43207  55.1877 135.0200 0007619 333.0527  26.9072  1.86231545 16679
BEIDOU-3 M6 (C22)       
1 43208U 18018B   20208.16411254  .00000011  00000-0  00000-0 0  9993
2 43208  55.1871 135.0407 0009098 305.0196  54.8952  1.86231433 16669
BEIDOU-3 M7 (C29)       
1 43245U 18029A   20208.45138203 -.00000074  00000-0  00000+0 0  9997
2 43245  55.3131  14.0688 0000770 122.8552 279.4458  1.86232847 15820
BEIDOU-3 M8 (C30)       
1 43246U 18029B   20208.89120844 -.00000075  00000-0  10000-3 0  9994
2 43246  55.3094  14.0852 0003419 352.5579  30.5146  1.86232932 15821
BEIDOU IGSO-7 (C16)     
1 43539U 18057A   20208.84287416 -.00000089  00000-0  00000+0 0  9994
2 43539  55.0473 181.8910 0029883 215.3152 322.5780  1.00255514  7587
BEIDOU-3 M9 (C23)       
1 43581U 18062A   20208.76369236  .00000033  00000-0  00000-0 0  9998
2 43581  54.5482 255.7853 0005596 254.6764 252.3893  1.86231803 13564
BEIDOU-3 M10 (C24)      
1 43582U 18062B   20208.41633303  .00000032  00000-0  00000+0 0  9998
2 43582  54.5476 255.7859 0003981 319.8184  45.3128  1.86232128 13562
BEIDOU-3 M11 (C25)      
1 43602U 18067A   20209.49636682  .00000040  00000-0  00000+0 0  9997
2 43602  54.6186 254.3048 0005878 342.3693  69.7983  1.86231770 13079
BEIDOU-3 M12 (C26)      
1 43603U 18067B   20209.08466735  .00000038  00000-0  00000+0 0  9990
2 43603  54.6151 254.2860 0003713 323.3188  83.3499  1.86231671 13082
BEIDOU-3 M13 (C32)      
1 43622U 18072A   20208.70129023  .00000004  00000-0  00000+0 0  9994
2 43622  55.1520 134.5976 0007709 292.0967 247.9624  1.86232000 12582
BEIDOU-3 M14 (C33)      
1 43623U 18072B   20208.70662013  .00000003  00000-0  00000+0 0  9995
2 43623  55.1532 134.5875 0006498 313.4335 320.4179  1.86232084 12589
BEIDOU-3 M15 (C34)      
1 43647U 18078A   20209.24321660 -.00000077  00000-0  10000-3 0  9994
2 43647  55.2050  14.2617 0006003 355.3601 173.4379  1.86232992 12117
BEIDOU-3 M16 (C35)      
1 43648U 18078B   20208.65797374 -.00000075  00000-0  10000-3 0  9996
2 43648  55.1990  14.2886 0004066  12.3776  33.0655  1.86232309 12118
BEIDOU-3 G1 (C59)       
1 43683U 18085A   20209.63807670 -.00000288  00000-0  00000+0 0  9994
2 43683   1.6835 253.5651 0004344 343.8745  77.9247  1.00266012  6500
BEIDOU-3 M17 (C36)      
1 43706U 18093A   20208.91089593  .00000034  00000-0  00000+0 0  9993
2 43706  54.6267 255.6147 0011378 259.9868 210.7662  1.86231903 11468
BEIDOU-3 M18 (C37)      
1 43707U 18093B   20208.67502090  .00000033  00000-0  00000+0 0  9998
2 43707  54.6285 255.6133 0009389 279.1616 124.0012  1.86232094 11466
BEIDOU-3 IGSO-1 (C38)   
1 44204U 19023A   20207.44766477 -.00000214  00000-0  10000-3 0  9997
2 44204  55.5470  60.4953 0017024 179.5522 338.1803  1.00283117  4771
BEIDOU-2 G8             
1 44231U 19027A   20208.99291993 -.00000255  00000-0  00000+0 0  9998
2 44231   0.8966 298.2844 0006822 268.5509 240.3039  1.00270154  4505
BEIDOU-3 IGSO-2 (C39)   
1 44337U 19035A   20209.34460495 -.00000086  00000-0  00000+0 0  9991
2 44337  55.0731 177.9410 0014336 191.0086 168.4947  1.00278292  4122
BEIDOU-3 M23 (C45)      
1 44542U 19061A   20209.28811796  .00000036  00000-0  10000-3 0  9994
2 44542  54.8506 255.6075 0008462 305.7327 102.4860  1.86231298  5732
BEIDOU-3 M24 (C46)      
1 44543U 19061B   20208.75709846  .00000034  00000-0  10000-3 0  9996
2 44543  54.8491 255.5957 0006049 290.8514  31.7791  1.86231742  5725
BEIDOU-3 IGSO-3         
1 44709U 19073A   20208.70245181 -.00000189  00000-0  10000-3 0  9997
2 44709  58.3383 303.5029 0025063 187.0094 174.6100  1.00271865  2880
BEIDOU-3 M21            
1 44793U 19078A   20207.45403172 -.00000072  00000-0  10000-3 0  9993
2 44793  55.0543  14.4269 0005864   3.9374   0.1218  1.86232767  4565
BEIDOU-3 M22            
1 44794U 19078B   20207.65403973 -.00000072  00000-0  10000-3 0  9995
2 44794  55.0293  14.4271 0003826   0.7380  47.7756  1.86233189  4562
BEIDOU-3 M19            
1 44864U 19090A   20208.78078435  .00000003  00000-0  00000+0 0  9991
2 44864  55.0880 134.8430 0016252 267.0896  11.5286  1.86232062  4165
BEIDOU-3 M20            
1 44865U 19090B   20208.53707545  .00000006  00000-0  10000-3 0  9994
2 44865  55.0903 134.8810 0015588 282.3667 282.7978  1.86232056  4142
BEIDOU-3 G2             
1 45344U 20017A   20209.12363635 -.00000147  00000-0  00000+0 0  9994
2 45344   2.8972 328.6753 0002719 146.4384 314.6762  1.00270727  1706
BEIDOU-3 G3             
1 45807U 20040A   20209.41677236 -.00000360  00000-0  00000+0 0  9998
2 45807   3.0282 298.7927 0006072 346.7912 280.5260  1.00271755   519
